{"type": "FeatureCollection", "features": [ {"type": "Feature", "properties": {"norad_id": 65304, "name": "DRAGON CRS-33", "group": "stations", "lat": 42.44295305056012, "lon": 126.60238260204544, "alt_km": 412.6353518493888, "timestamp": "2025-12-25T07:41:08.484308+00:00", "meta": {"OBJECT_NAME": "DRAGON CRS-33", "OBJECT_ID": "2025-186A", "EPOCH": "2025-12-24T17:30:08.449344", "MEAN_MOTION": 15.49788781, "ECCENTRICITY": 0.00031932, "INCLINATION": 51.6317, "RA_OF_ASC_NODE": 83.1022, "ARG_OF_PERICENTER": 296.2044, "MEAN_ANOMALY": 63.8616, "EPHEMERIS_TYPE": 0, "CLASSIFICATION_TYPE": "U", "NORAD_CAT_ID": 65304, "ELEMENT_SET_NO": 999, "REV_AT_EPOCH": 11, "BSTAR": 0.00024880559, "MEAN_MOTION_DOT": 0.00013665, "MEAN_MOTION_DDOT": 0}, "tle": {"line1": "1 65304U 25186A   25358.72926446  .00013665  00000+0  24881-3 0  9999", "line2": "2 65304  51.6317  83.1022 0003193 296.2044  63.8616 15.49788781   112"}}, "geometry": {"type": "Point", "coordinates": [126.60238260204544, 42.44295305056012]}}, {"type": "Feature", "properties": {"norad_id": 65586, "name": "PROGRESS-MS 32", "group": "stations", "lat": 42.44295343498742, "lon": 126.60238341283637, "alt_km": 412.6353518137512, "timestamp": "2025-12-25T07:41:08.484319+00:00", "meta": {"OBJECT_NAME": "PROGRESS-MS 32", "OBJECT_ID": "2025-204A", "EPOCH": "2025-12-24T17:30:08.449344", "MEAN_MOTION": 15.49788781, "ECCENTRICITY": 0.00031932, "INCLINATION": 51.6317, "RA_OF_ASC_NODE": 83.1022, "ARG_OF_PERICENTER": 296.2044, "MEAN_ANOMALY": 63.8616, "EPHEMERIS_TYPE": 0, "CLASSIFICATION_TYPE": "U", "NORAD_CAT_ID": 65586, "ELEMENT_SET_NO": 999, "REV_AT_EPOCH": 27, "BSTAR": 0.00024880559, "MEAN_MOTION_DOT": 0.00013665, "MEAN_MOTION_DDOT": 0}, "tle": {"line1": "1 65586U 25204A   25358.72926446  .00013665  00000+0  24881-3 0  9992", "line2": "2 65586  51.6317  83.1022 0003193 296.2044  63.8616 15.49788781   271"}}, "geometry": {"type": "Point", "coordinates": [126.60238341283637, 42.44295343498742]}}, {"type": "Feature", "properties": {"norad_id": 65616, "name": "CYGNUS NG-23", "group": "stations", "lat": 42.44295378446687, "lon": 126.60238414991919, "alt_km": 412.6353517813477, "timestamp": "2025-12-25T07:41:08.484329+00:00", "meta": {"OBJECT_NAME": "CYGNUS NG-23", "OBJECT_ID": "2025-208A", "EPOCH": "2025-12-24T17:30:08.449344", "MEAN_MOTION": 15.49788781, "ECCENTRICITY": 0.00031932, "INCLINATION": 51.6317, "RA_OF_ASC_NODE": 83.1022, "ARG_OF_PERICENTER": 296.2044, "MEAN_ANOMALY": 63.8616, "EPHEMERIS_TYPE": 0, "CLASSIFICATION_TYPE": "U", "NORAD_CAT_ID": 65616, "ELEMENT_SET_NO": 999, "REV_AT_EPOCH": 22, "BSTAR": 0.00024880559, "MEAN_MOTION_DOT": 0.00013665, "MEAN_MOTION_DDOT": 0}, "tle": {"line1": "1 65616U 25208A   25358.72926446  .00013665  00000+0  24881-3 0  9990", "line2": "2 65616  51.6317  83.1022 0003193 296.2044  63.8616 15.49788781   220"}}, "geometry": {"type": "Point", "coordinates": [126.60238414991919, 42.44295378446687]}}, {"type": "Feature", "properties": {"norad_id": 65729, "name": "DRAGONFLY", "group": "stations", "lat": 44.33104196806476, "lon": 121.86762115228242, "alt_km": 333.23992819036084, "timestamp": "2025-12-25T07:41:08.484339+00:00", "meta": {"OBJECT_NAME": "DRAGONFLY", "OBJECT_ID": "1998-067XH", "EPOCH": "2025-12-24T11:38:16.363968", "MEAN_MOTION": 15.75967783, "ECCENTRICITY": 0.00080455, "INCLINATION": 51.6248, "RA_OF_ASC_NODE": 75.4439, "ARG_OF_PERICENTER": 347.1205, "MEAN_ANOMALY": 12.9588, "EPHEMERIS_TYPE": 0, "CLASSIFICATION_TYPE": "U", "NORAD_CAT_ID": 65729, "ELEMENT_SET_NO": 999, "REV_AT_EPOCH": 1501, "BSTAR": 0.0013446624, "MEAN_MOTION_DOT": 0.0021844, "MEAN_MOTION_DDOT": 0}, "tle": {"line1": "1 65729U 98067XH  25358.48491162  .00218440  00000+0  13447-2 0  9996", "line2": "2 65729  51.6248  75.4439 0008045 347.1205  12.9588 15.75967783 15016"}}, "geometry": {"type": "Point", "coordinates": [121.86762115228242, 44.33104196806476]}}, {"type": "Feature", "properties": {"norad_id": 65731, "name": "1998-067XK", "group": "stations", "lat": 40.05339028739789, "lon": -148.47711092146372, "alt_km": 361.9457092564098, "timestamp": "2025-12-25T07:41:08.484349+00:00", "meta": {"OBJECT_NAME": "1998-067XK", "OBJECT_ID": "1998-067XK", "EPOCH": "2025-12-24T11:16:20.028000", "MEAN_MOTION": 15.67978094, "ECCENTRICITY": 0.00049802, "INCLINATION": 51.6288, "RA_OF_ASC_NODE": 77.6233, "ARG_OF_PERICENTER": 319.0572, "MEAN_ANOMALY": 41.005, "EPHEMERIS_TYPE": 0, "CLASSIFICATION_TYPE": "U", "NORAD_CAT_ID": 65731, "ELEMENT_SET_NO": 999, "REV_AT_EPOCH": 1498, "BSTAR": 0.00093626937, "MEAN_MOTION_DOT": 0.00106638, "MEAN_MOTION_DDOT": 0}, "tle": {"line1": "1 65731U 98067XK  25358.46967625  .00106638  00000+0  93627-3 0  9993", "line2": "2 65731  51.6288  77.6233 0004980 319.0572  41.0050 15.67978094 14988"}}, "geometry": {"type": "Point", "coordinates": [-148.47711092146372, 40.05339028739789]}}, {"type": "Feature", "properties": {"norad_id": 65732, "name": "RSP-03", "group": "stations", "lat": -45.66444633163529, "lon": -53.530612013657326, "alt_km": 357.46930336166133, "timestamp": "2025-12-25T07:41:08.484359+00:00", "meta": {"OBJECT_NAME": "RSP-03", "OBJECT_ID": "1998-067XL", "EPOCH": "2025-12-24T13:51:31.108032", "MEAN_MOTION": 15.71657044, "ECCENTRICITY": 0.00059433, "INCLINATION": 51.626, "RA_OF_ASC_NODE": 76.0777, "ARG_OF_PERICENTER": 326.3891, "MEAN_ANOMALY": 33.6729, "EPHEMERIS_TYPE": 0, "CLASSIFICATION_TYPE": "U", "NORAD_CAT_ID": 65732, "ELEMENT_SET_NO": 999, "REV_AT_EPOCH": 1502, "BSTAR": 0.0011207936, "MEAN_MOTION_DOT": 0.00149733, "MEAN_MOTION_DDOT": 0}, "tle": {"line1": "1 65732U 98067XL  25358.57744338  .00149733  00000+0  11208-2 0  9997", "line2": "2 65732  51.6260  76.0777 0005943 326.3891  33.6729 15.71657044 15020"}}, "geometry": {"type": "Point", "coordinates": [-53.530612013657326, -45.66444633163529]}}, {"type": "Feature", "properties": {"norad_id": 65733, "name": "GHS-01", "group": "stations", "lat": 31.256802900687205, "lon": -138.50419254676265, "alt_km": 329.6713101147934, "timestamp": "2025-12-25T07:41:08.484370+00:00", "meta": {"OBJECT_NAME": "GHS-01", "OBJECT_ID": "1998-067XM", "EPOCH": "2025-12-24T11:22:26.359680", "MEAN_MOTION": 15.80150374, "ECCENTRICITY": 0.00095342, "INCLINATION": 51.6288, "RA_OF_ASC_NODE": 74.6328, "ARG_OF_PERICENTER": 353.1442, "MEAN_ANOMALY": 6.9427, "EPHEMERIS_TYPE": 0, "CLASSIFICATION_TYPE": "U", "NORAD_CAT_ID": 65733, "ELEMENT_SET_NO": 999, "REV_AT_EPOCH": 1503, "BSTAR": 0.0014499406, "MEAN_MOTION_DOT": 0.00286733, "MEAN_MOTION_DDOT": 0}, "tle": {"line1": "1 65733U 98067XM  25358.47391620  .00286733  00000+0  14499-2 0  9996", "line2": "2 65733  51.6288  74.6328 0009534 353.1442   6.9427 15.80150374 15030"}}, "geometry": {"type": "Point", "coordinates": [-138.50419254676265, 31.256802900687205]}}, {"type": "Feature", "properties": {"norad_id": 65941, "name": "YOTSUBA-KULOVER", "group": "stations", "lat": -40.3355475873999, "lon": 34.38520513458608, "alt_km": 387.643431558683, "timestamp": "2025-12-25T07:41:08.484380+00:00", "meta": {"OBJECT_NAME": "YOTSUBA-KULOVER", "OBJECT_ID": "1998-067XN", "EPOCH": "2025-12-24T15:01:23.824416", "MEAN_MOTION": 15.61031773, "ECCENTRICITY": 0.0002334, "INCLINATION": 51.6294, "RA_OF_ASC_NODE": 80.1673, "ARG_OF_PERICENTER": 354.5488, "MEAN_ANOMALY": 5.548, "EPHEMERIS_TYPE": 0, "CLASSIFICATION_TYPE": "U", "NORAD_CAT_ID": 65941, "ELEMENT_SET_NO": 999, "REV_AT_EPOCH": 1171, "BSTAR": 0.00084629408, "MEAN_MOTION_DOT": 0.00072714, "MEAN_MOTION_DDOT": 0}, "tle": {"line1": "1 65941U 98067XN  25358.62597019  .00072714  00000+0  84629-3 0  9999", "line2": "2 65941  51.6294  80.1673 0002334 354.5488   5.5480 15.61031773 11714"}}, "geometry": {"type": "Point", "coordinates": [34.38520513458608, -40.3355475873999]}}, {"type": "Feature", "properties": {"norad_id": 65942, "name": "BOTAN", "group": "stations", "lat": 51.605734093583195, "lon": 164.99072122007806, "alt_km": 365.44146482405813, "timestamp": "2025-12-25T07:41:08.484391+00:00", "meta": {"OBJECT_NAME": "BOTAN", "OBJECT_ID": "1998-067XP", "EPOCH": "2025-12-24T22:06:45.138528", "MEAN_MOTION": 15.65433076, "ECCENTRICITY": 0.00033628, "INCLINATION": 51.6276, "RA_OF_ASC_NODE": 77.6384, "ARG_OF_PERICENTER": 336.9031, "MEAN_ANOMALY": 23.1813, "EPHEMERIS_TYPE": 0, "CLASSIFICATION_TYPE": "U", "NORAD_CAT_ID": 65942, "ELEMENT_SET_NO": 999, "REV_AT_EPOCH": 1177, "BSTAR": 0.0011375872, "MEAN_MOTION_DOT": 0.00117098, "MEAN_MOTION_DDOT": 0}, "tle": {"line1": "1 65942U 98067XP  25358.92135577  .00117098  00000+0  11376-2 0  9993", "line2": "2 65942  51.6276  77.6384 0003362 336.9031  23.1813 15.65433076 11773"}}, "geometry": {"type": "Point", "coordinates": [164.99072122007806, 51.605734093583195]}}, {"type": "Feature", "properties": {"norad_id": 65943, "name": "E-KAGAKU-1", "group": "stations", "lat": -40.62702761866692, "lon": 33.855090095781236, "alt_km": 387.6710470352655, "timestamp": "2025-12-25T07:41:08.484403+00:00", "meta": {"OBJECT_NAME": "E-KAGAKU-1", "OBJECT_ID": "1998-067XQ", "EPOCH": "2025-12-24T11:57:09.904320", "MEAN_MOTION": 15.61022855, "ECCENTRICITY": 0.00014072, "INCLINATION": 51.6316, "RA_OF_ASC_NODE": 80.8196, "ARG_OF_PERICENTER": 317.6976, "MEAN_ANOMALY": 42.3909, "EPHEMERIS_TYPE": 0, "CLASSIFICATION_TYPE": "U", "NORAD_CAT_ID": 65943, "ELEMENT_SET_NO": 999, "REV_AT_EPOCH": 1169, "BSTAR": 0.00086882896, "MEAN_MOTION_DOT": 0.00074652, "MEAN_MOTION_DDOT": 0}, "tle": {"line1": "1 65943U 98067XQ  25358.49803130  .00074652  00000+0  86883-3 0  9997", "line2": "2 65943  51.6316  80.8196 0001407 317.6976  42.3909 15.61022855 11693"}}, "geometry": {"type": "Point", "coordinates": [33.855090095781236, -40.62702761866692]}}]}